{"type": "FeatureCollection", "features": [{"type": "Feature", "properties": {"norad_id": 28054, "name": "DMSP 5D-3 F16 (USA 172)", "group": "weather", "lat": -57.042237223267435, "lon": -175.41922246247873, "alt_km": 847.6651056794835, "timestamp": "2025-12-27T03:58:43.824162+00:00", "meta": {"OBJECT_NAME": "DMSP 5D-3 F16 (USA 172)", "OBJECT_ID": "2003-048A", "EPOCH": "2025-12-26T18:51:57.832992", "MEAN_MOTION": 14.1442907, "ECCENTRICITY": 0.0006242, "INCLINATION": 99.0037, "RA_OF_ASC_NODE": 18.3529, "ARG_OF_PERICENTER": 275.7163, "MEAN_ANOMALY": 190.0901, "EPHEMERIS_TYPE": 0, "CLASSIFICATION_TYPE": "U", "NORAD_CAT_ID": 28054, "ELEMENT_SET_NO": 999, "REV_AT_EPOCH": 14511, "BSTAR": 8.8537e-05, "MEAN_MOTION_DOT": 1.24e-06, "MEAN_MOTION_DDOT": 0}, "tle": {"line1": "1 28054U 03048A   25360.78608603  .00000124  00000+0  88537-4 0  9999", "line2": "2 28054  99.0037  18.3529 0006242 275.7163 190.0901 14.14429070145116"}}, "geometry": {"type": "Point", "coordinates": [-175.41922246247873, -57.042237223267435]}}, {"type": "Feature", "properties": {"norad_id": 28912, "name": "METEOSAT-9 (MSG-2)", "group": "weather", "lat": 5.255653851400205, "lon": -159.8404850150293, "alt_km": 36010.736176498634, "timestamp": "2025-12-27T03:58:43.824214+00:00", "meta": {"OBJECT_NAME": "METEOSAT-9 (MSG-2)", "OBJECT_ID": "2005-049B", "EPOCH": "2025-12-24T18:27:10.310976", "MEAN_MOTION": 1.00268275, "ECCENTRICITY": 0.00719695, "INCLINATION": 8.9553, "RA_OF_ASC_NODE": 55.846, "ARG_OF_PERICENTER": 282.2974, "MEAN_ANOMALY": 77.0088, "EPHEMERIS_TYPE": 0, "CLASSIFICATION_TYPE": "U", "NORAD_CAT_ID": 28912, "ELEMENT_SET_NO": 999, "REV_AT_EPOCH": 524, "BSTAR": 0, "MEAN_MOTION_DOT": 1.45e-06, "MEAN_MOTION_DDOT": 0}, "tle": {"line1": "1 28912U 05049B   25358.76886934  .00000145  00000+0  00000+0 0  9992", "line2": "2 28912   8.9553  55.8460 0071969 282.2974  77.0088  1.00268275  5240"}}, "geometry": {"type": "Point", "coordinates": [-159.8404850150293, 5.255653851400205]}}, {"type": "Feature", "properties": {"norad_id": 29522, "name": "DMSP 5D-3 F17 (USA 191)", "group": "weather", "lat": -23.76824982457383, "lon": -177.62982904286164, "alt_km": 841.2759364931198, "timestamp": "2025-12-27T03:58:43.824231+00:00", "meta": {"OBJECT_NAME": "DMSP 5D-3 F17 (USA 191)", "OBJECT_ID": "2006-050A", "EPOCH": "2025-12-26T16:50:06.510336", "MEAN_MOTION": 14.14925479, "ECCENTRICITY": 0.0010019, "INCLINATION": 98.7393, "RA_OF_ASC_NODE": 5.7998, "ARG_OF_PERICENTER": 183.4248, "MEAN_ANOMALY": 176.6858, "EPHEMERIS_TYPE": 0, "CLASSIFICATION_TYPE": "U", "NORAD_CAT_ID": 29522, "ELEMENT_SET_NO": 999, "REV_AT_EPOCH": 98802, "BSTAR": 0.00011385, "MEAN_MOTION_DOT": 1.77e-06, "MEAN_MOTION_DDOT": 0}, "tle": {"line1": "1 29522U 06050A   25360.70146424  .00000177  00000+0  11385-3 0  9990", "line2": "2 29522  98.7393   5.7998 0010019 183.4248 176.6858 14.14925479988024"}}, "geometry": {"type": "Point", "coordinates": [-177.62982904286164, -23.76824982457383]}}, {"type": "Feature", "properties": {"norad_id": 32958, "name": "FENGYUN 3A", "group": "weather", "lat": 23.567762524534434, "lon": 124.20696282076909, "alt_km": 828.0687141717253, "timestamp": "2025-12-27T03:58:43.824244+00:00", "meta": {"OBJECT_NAME": "FENGYUN 3A", "OBJECT_ID": "2008-026A", "EPOCH": "2025-12-26T20:28:43.260672", "MEAN_MOTION": 14.19518996, "ECCENTRICITY": 0.0007614, "INCLINATION": 98.6714, "RA_OF_ASC_NODE": 300.084, "ARG_OF_PERICENTER": 264.5136, "MEAN_ANOMALY": 95.5172, "EPHEMERIS_TYPE": 0, "CLASSIFICATION_TYPE": "U", "NORAD_CAT_ID": 32958, "ELEMENT_SET_NO": 999, "REV_AT_EPOCH": 91095, "BSTAR": 8.1606e-05, "MEAN_MOTION_DOT": 1.29e-06, "MEAN_MOTION_DDOT": 0}, "tle": {"line1": "1 32958U 08026A   25360.85327848  .00000129  00000+0  81606-4 0  9990", "line2": "2 32958  98.6714 300.0840 0007614 264.5136  95.5172 14.19518996910950"}}, "geometry": {"type": "Point", "coordinates": [124.20696282076909, 23.567762524534434]}}, {"type": "Feature", "properties": {"norad_id": 35491, "name": "GOES 14", "group": "weather", "lat": -0.9200238720843488, "lon": 36.74970458747285, "alt_km": 35836.70666023705, "timestamp": "2025-12-27T03:58:43.824257+00:00", "meta": {"OBJECT_NAME": "GOES 14", "OBJECT_ID": "2009-033A", "EPOCH": "2025-12-26T12:10:38.039808", "MEAN_MOTION": 1.00097067, "ECCENTRICITY": 7.66e-05, "INCLINATION": 1.2376, "RA_OF_ASC_NODE": 85.2609, "ARG_OF_PERICENTER": 194.3443, "MEAN_ANOMALY": 239.8772, "EPHEMERIS_TYPE": 0, "CLASSIFICATION_TYPE": "U", "NORAD_CAT_ID": 35491, "ELEMENT_SET_NO": 999, "REV_AT_EPOCH": 486, "BSTAR": 0, "MEAN_MOTION_DOT": 4.3e-07, "MEAN_MOTION_DDOT": 0}, "tle": {"line1": "1 35491U 09033A   25360.50738472  .00000043  00000+0  00000+0 0  9994", "line2": "2 35491   1.2376  85.2609 0000766 194.3443 239.8772  1.00097067  4866"}}, "geometry": {"type": "Point", "coordinates": [36.74970458747285, -0.9200238720843488]}}, {"type": "Feature", "properties": {"norad_id": 35951, "name": "DMSP 5D-3 F18 (USA 210)", "group": "weather", "lat": 62.443753982660716, "lon": -39.94862244136871, "alt_km": 830.4443415875494, "timestamp": "2025-12-27T03:58:43.824268+00:00", "meta": {"OBJECT_NAME": "DMSP 5D-3 F18 (USA 210)", "OBJECT_ID": "2009-057A", "EPOCH": "2025-12-26T19:11:32.497152", "MEAN_MOTION": 14.14778509, "ECCENTRICITY": 0.001163, "INCLINATION": 98.8851, "RA_OF_ASC_NODE": 337.1313, "ARG_OF_PERICENTER": 25.5177, "MEAN_ANOMALY": 334.6568, "EPHEMERIS_TYPE": 0, "CLASSIFICATION_TYPE": "U", "NORAD_CAT_ID": 35951, "ELEMENT_SET_NO": 999, "REV_AT_EPOCH": 83521, "BSTAR": 0.00017785, "MEAN_MOTION_DOT": 2.98e-06, "MEAN_MOTION_DDOT": 0}, "tle": {"line1": "1 35951U 09057A   25360.79968168  .00000298  00000+0  17785-3 0  9993", "line2": "2 35951  98.8851 337.1313 0011630  25.5177 334.6568 14.14778509835213"}}, "geometry": {"type": "Point", "coordinates": [-39.94862244136871, 62.443753982660716]}}, {"type": "Feature", "properties": {"norad_id": 36411, "name": "EWS-G2 (GOES 15)", "group": "weather", "lat": 0.6326861822289532, "lon": -143.12239326631968, "alt_km": 35770.442067663746, "timestamp": "2025-12-27T03:58:43.824282+00:00", "meta": {"OBJECT_NAME": "EWS-G2 (GOES 15)", "OBJECT_ID": "2010-008A", "EPOCH": "2025-12-26T18:08:44.994048", "MEAN_MOTION": 1.00271008, "ECCENTRICITY": 0.0005656, "INCLINATION": 0.8463, "RA_OF_ASC_NODE": 86.065, "ARG_OF_PERICENTER": 179.6138, "MEAN_ANOMALY": 163.353, "EPHEMERIS_TYPE": 0, "CLASSIFICATION_TYPE": "U", "NORAD_CAT_ID": 36411, "ELEMENT_SET_NO": 999, "REV_AT_EPOCH": 5790, "BSTAR": 0, "MEAN_MOTION_DOT": 6e-07, "MEAN_MOTION_DDOT": 0}, "tle": {"line1": "1 36411U 10008A   25360.75607632  .00000060  00000+0  00000+0 0  9990", "line2": "2 36411   0.8463  86.0650 0005656 179.6138 163.3530  1.00271008 57901"}}, "geometry": {"type": "Point", "coordinates": [-143.12239326631968, 0.6326861822289532]}}, {"type": "Feature", "properties": {"norad_id": 36744, "name": "COMS 1", "group": "weather", "lat": -1.9270585165126115, "lon": -76.32790219424673, "alt_km": 35783.33511052563, "timestamp": "2025-12-27T03:58:43.824295+00:00", "meta": {"OBJECT_NAME": "COMS 1", "OBJECT_ID": "2010-032A", "EPOCH": "2025-12-25T12:42:15.782976", "MEAN_MOTION": 1.00270082, "ECCENTRICITY": 8.877e-05, "INCLINATION": 4.3689, "RA_OF_ASC_NODE": 77.8525, "ARG_OF_PERICENTER": 213.8569, "MEAN_ANOMALY": 121.3153, "EPHEMERIS_TYPE": 0, "CLASSIFICATION_TYPE": "U", "NORAD_CAT_ID": 36744, "ELEMENT_SET_NO": 999, "REV_AT_EPOCH": 4934, "BSTAR": 0, "MEAN_MOTION_DOT": -3.24e-06, "MEAN_MOTION_DDOT": 0}, "tle": {"line1": "1 36744U 10032A   25359.52934934 -.00000324  00000+0  00000+0 0  9991", "line2": "2 36744   4.3689  77.8525 0000887 213.8569 121.3153  1.00270082 49343"}}, "geometry": {"type": "Point", "coordinates": [-76.32790219424673, -1.9270585165126115]}}, {"type": "Feature", "properties": {"norad_id": 37214, "name": "FENGYUN 3B", "group": "weather", "lat": 29.12583391320724, "lon": 36.1825368737165, "alt_km": 837.089022471042, "timestamp": "2025-12-27T03:58:43.824307+00:00", "meta": {"OBJECT_NAME": "FENGYUN 3B", "OBJECT_ID": "2010-059A", "EPOCH": "2025-12-26T21:52:17.669568", "MEAN_MOTION": 14.14793995, "ECCENTRICITY": 0.0021444, "INCLINATION": 98.9887, "RA_OF_ASC_NODE": 40.986, "ARG_OF_PERICENTER": 316.9586, "MEAN_ANOMALY": 217.0694, "EPHEMERIS_TYPE": 0, "CLASSIFICATION_TYPE": "U", "NORAD_CAT_ID": 37214, "ELEMENT_SET_NO": 999, "REV_AT_EPOCH": 78306, "BSTAR": 6.425e-05, "MEAN_MOTION_DOT": 7.9e-07, "MEAN_MOTION_DDOT": 0}, "tle": {"line1": "1 37214U 10059A   25360.91131562  .00000079  00000+0  64250-4 0  9992", "line2": "2 37214  98.9887  40.9860 0021444 316.9586 217.0694 14.14793995783063"}}, "geometry": {"type": "Point", "coordinates": [36.1825368737165, 29.12583391320724]}}, {"type": "Feature", "properties": {"norad_id": 37849, "name": "SUOMI NPP", "group": "weather", "lat": 63.58322223626168, "lon": 136.50113361007178, "alt_km": 819.12067351122, "timestamp": "2025-12-27T03:58:43.824319+00:00", "meta": {"OBJECT_NAME": "SUOMI NPP", "OBJECT_ID": "2011-061A", "EPOCH": "2025-12-22T15:10:21.732672", "MEAN_MOTION": 14.19516903, "ECCENTRICITY": 0.00024883, "INCLINATION": 98.7787, "RA_OF_ASC_NODE": 293.8852, "ARG_OF_PERICENTER": 103.0781, "MEAN_ANOMALY": 257.0673, "EPHEMERIS_TYPE": 0, "CLASSIFICATION_TYPE": "U", "NORAD_CAT_ID": 37849, "ELEMENT_SET_NO": 999, "REV_AT_EPOCH": 73339, "BSTAR": 6.3406935e-05, "MEAN_MOTION_DOT": 8.9e-07, "MEAN_MOTION_DDOT": 0}, "tle": {"line1": "1 37849U 11061A   25356.63219598  .00000089  00000+0  63407-4 0  9994", "line2": "2 37849  98.7787 293.8852 0002488 103.0781 257.0673 14.19516903733392"}}, "geometry": {"type": "Point", "coordinates": [136.50113361007178, 63.58322223626168]}}]}